// GET FROM https://celestrak.org/NORAD/elements/gp.php?NAME=ICEYE&FORMAT=tle

export const mock_iceye_tle = `ICEYE-X2                
1 43800U 18099AU  25362.98051988  .00004080  00000+0  22017-3 0  9994
2 43800  97.4625  54.8756 0010989 166.6317 193.5209 15.15258072387027
ICEYE-X5                
1 44389U 19038C   25362.95392339  .00040342  00000+0  93487-3 0  9996
2 44389  97.8967  37.1708 0008967 137.8834 222.3103 15.42280365356616
ICEYE-X4                
1 44390U 19038D   25362.97992880  .00016894  00000+0  67840-3 0  9996
2 44390  97.8955  21.2513 0014634 172.7717 187.3733 15.24943540355821
ICEYE-X7                
1 46496U 20068L   25362.96574266  .00018507  00000+0  70260-3 0  9996
2 46496  97.7305 317.5497 0007578 192.8375 167.2671 15.26864293288778
ICEYE-X6                
1 46497U 20068M   25362.93488374  .00005032  00000+0  37624-3 0  9994
2 46497  98.0859 343.7474 0005779 312.1298  47.9435 15.03248495287647
ICEYE-X11               
1 48918U 21059AR  25362.96319235  .00083786  00000+0  94452-3 0  9991
2 48918  97.6531 179.5541 0005970 257.7600 102.2989 15.62238786251156
ICEYE-X14               
1 51070U 22002CQ  25362.91861495  .00846724  33261-3  18336-2 0  9992
2 51070  97.3052  78.9688 0005077 294.2444  65.8303 15.98414295220552
ICEYE-X21               
1 55049U 23001AS  25362.93371616  .00096198  00000+0  11147-2 0  9991
2 55049  97.3534  73.3840 0011414 311.3703  48.6572 15.61424234166726
ICEYE-X30               
1 56947U 23084R   25362.36682029  .00080277  00000+0  10099-2 0  9996
2 56947  97.5736 143.2686 0005172 229.6377 130.4427 15.59384331142067
ICEYE-X26               
1 56961U 23084AF  25362.95030259  .00057818  00000+0  59085-3 0  9993
2 56961  97.5722 147.8486 0000693 126.2812 233.8511 15.64869848142413
ICEYE-X25               
1 56963U 23084AH  25362.93133117  .00054912  00000+0  11840-2 0  9998
2 56963  97.5751 134.6556 0005875 200.0894 160.0123 15.44378548141551
ICEYE-X31               
1 58288U 23174AJ  25362.98368120  .00024425  00000+0  88948-3 0  9999
2 58288  97.3982  74.3736 0002567 187.3291 172.7912 15.28198026118700
ICEYE-X34               
1 58294U 23174AQ  25362.93488414  .00051328  00000+0  10912-2 0  9997
2 58294  97.4030  83.6828 0005235  49.1358 311.0344 15.44817179119300
ICEYE-X35               
1 58302U 23174AY  25362.97376277  .00041863  00000+0  10689-2 0  9998
2 58302  97.3970  79.4879 0011717  91.4818 268.7770 15.39297125119054
ICEYE-X38               
1 59100U 24043C   25362.95362615  .00010887  00000+0  66582-3 0  9996
2 59100  97.8157 137.5510 0002014 321.0944  39.0140 15.10423403 85953
ICEYE-X37               
1 59102U 24043E   25362.80643596  .00007492  00000+0  54338-3 0  9996
2 59102  97.8064 132.6204 0015119 223.3843 136.6193 15.04133907 99452
ICEYE-X36               
1 59103U 24043F   25362.89506997  .00009701  00000+0  69006-3 0  9992
2 59103  97.8139 133.4531 0006397 165.9303 194.2103 15.04854131 99515
ICEYE-X43               
1 60539U 24149BZ  25362.78575476  .00004033  00000+0  34030-3 0  9992
2 60539  97.6977  77.0333 0002090 290.9532  69.1467 14.98697371 74586
ICEYE-X39               
1 60546U 24149CG  25362.95854256  .00006332  00000+0  53317-3 0  9998
2 60546  97.6962  77.2711 0002255 292.9981  67.1003 14.98566948 74616
ICEYE-X33               
1 60548U 24149CJ  25362.76799090  .00006751  00000+0  54361-3 0  9998
2 60548  97.7044  78.2199 0004402 355.1163   5.0017 15.00261653 74649
ICEYE-X40               
1 60549U 24149CK  25362.92373608  .00001837  00000+0  16390-3 0  9990
2 60549  97.6988  77.1199 0003672 298.1692  61.9159 14.97174680 74595
ICEYE-X49               
1 62384U 24247H   25362.78961451  .00005886  00000+0  36258-3 0  9994
2 62384  44.9967 185.8059 0002141 184.3705 175.7154 15.10865388 56383
ICEYE-X47               
1 62389U 24247N   25362.78980689  .00005194  00000+0  32083-3 0  9997
2 62389  44.9946 185.7379 0000995 192.3674 167.7179 15.10963583 56382
ICEYE-X42               
1 62698U 25009CT  25362.77563154  .00004213  00000+0  42242-3 0  9999
2 62698  97.7391  79.1613 0001694 121.7813 238.3571 14.91867041 51881
ICEYE-X41               
1 62700U 25009CV  25362.79380188  .00004454  00000+0  40828-3 0  9994
2 62700  97.7229  79.8533 0001039 181.0148 179.1071 14.95405617 51930
ICEYE-X45               
1 62705U 25009DA  25362.78697304  .00005203  00000+0  41374-3 0  9999
2 62705  97.7960  83.6166 0001211  61.1299 299.0046 15.00864689 52120
ICEYE-X44               
1 62707U 25009DC  25362.79706732  .00004177  00000+0  38959-3 0  9992
2 62707  97.7222  79.6586 0001330  28.6083 331.5210 14.94749791 74470
ICEYE-X48               
1 63253U 25052AV  25362.64200890  .00005928  00000+0  54569-3 0  9995
2 63253  97.7059 252.4054 0003616  68.9764 291.1843 14.95104193 43154
ICEYE-X50               
1 63255U 25052AX  25362.94531771  .00003436  00000+0  32357-3 0  9998
2 63255  97.7082 252.9873 0003346  67.7650 292.3926 14.94483173 43216
ICEYE-X51               
1 63257U 25052AZ  25362.71978218  .00000781  00000+0  66038-4 0  9990
2 63257  97.7205 253.5534 0002107  62.3753 297.7684 15.00914160 43230
ICEYE-X46               
1 63258U 25052BA  25362.96922544  .00005652  00000+0  52636-3 0  9999
2 63258  97.7072 252.9472 0001383  73.9845 286.1527 14.94667702 43217
ICEYE-X54               
1 64570U 25135AU  25362.90024748  .00005407  00000+0  52341-3 0  9993
2 64570  97.7583 114.3260 0002742 141.1966 218.9451 14.93156023 28478
ICEYE-X52               
1 64572U 25135AW  25362.92371437  .00004687  00000+0  46042-3 0  9997
2 64572  97.7604 114.3333 0002494 146.6233 213.5144 14.92633798 28474
ICEYE-X56               
1 64574U 25135AY  25362.95768910  .00006500  00000+0  61321-3 0  9991
2 64574  97.7606 114.6027 0002284 154.4209 205.7125 14.94102625 28494
ICEYE-X57               
1 64578U 25135BC  25362.89902603  .00007940  00000+0  69021-3 0  9991
2 64578  97.7566 114.6044 0003217 166.1227 194.0083 14.97247741 28494
ICEYE-X55               
1 64581U 25135BF  25362.91017156  .00006671  00000+0  63607-3 0  9992
2 64581  97.7599 114.5108 0003172 180.4186 179.7031 14.93667409 28482
ICEYE-X53               
1 64584U 25135BJ  25362.95243266 -.00000384  00000+0 -25442-4 0  9995
2 64584  97.7540 115.3359 0002841 173.5646 186.5615 15.00886994 28546
ICEYE-X65               
1 66300U 25248H   25361.26616995 -.00004721  00000+0 -21668-3 0  9998
2 66300  45.4057 321.9596 0003539 178.6864 181.4031 15.17744032  9525
ICEYE-X66               
1 66301U 25248J   25362.91351154  .00025974  00000+0  12554-2 0  9999
2 66301  45.4053 313.1687 0003024 166.9761 193.1204 15.18250873  9754
ICEYE-X67               
1 66302U 25248K   25362.24320416  .00024666  00000+0  12064-2 0  9996
2 66302  45.4052 316.6180 0003886 176.4281 183.6633 15.17861638  9665
ICEYE-X58               
1 66751U 25276CP  25362.88682537  .00009159  00000+0  45524-3 0  9998
2 66751  97.4409  74.3894 0002868 183.3842 176.7373 15.17864083  4571
ICEYE-X59               
1 66752U 25276CQ  25362.95658613  .00013533  00000+0  67445-3 0  9992
2 66752  97.4401  74.4485 0002295 207.1859 152.9255 15.17671955  4588
ICEYE-X60               
1 66753U 25276CR  25362.89528451  .00009063  00000+0  45603-3 0  9997
2 66753  97.4403  74.3738 0001369 232.2417 127.8693 15.17442459  4572
ICEYE-X61               
1 66754U 25276CS  25362.88578393  .00008774  00000+0  43574-3 0  9990
2 66754  97.4402  74.3852 0002790 173.2387 186.8885 15.17906529  4579
ICEYE-X62               
1 66755U 25276CT  25362.75898663  .00018202  00000+0  90490-3 0  9998
2 66755  97.4404  74.2481 0001656 199.1393 160.9779 15.17693447  4558`;
